[{"OBJECT_NAME":"TK-2","OBJECT_ID":"2022-031A","EPOCH":"2026-03-09T22:51:17.143200","MEAN_MOTION":15.02943491,"ECCENTRICITY":0.00164117,"INCLINATION":97.8366,"RA_OF_ASC_NODE":263.9365,"ARG_OF_PERICENTER":100.3205,"MEAN_ANOMALY":259.9871,"EPHEMERIS_TYPE":0,"CLASSIFICATION_TYPE":"U","NORAD_CAT_ID":52150,"ELEMENT_SET_NO":999,"REV_AT_EPOCH":21555,"BSTAR":0.00040164474,"MEAN_MOTION_DOT":5.349e-5,"MEAN_MOTION_DDOT":0},{"OBJECT_NAME":"STARLINK-5310","OBJECT_ID":"2023-010D","EPOCH":"2026-03-09T22:37:24.206592","MEAN_MOTION":14.98335809,"ECCENTRICITY":0.00036598,"INCLINATION":69.9998,"RA_OF_ASC_NODE":43.833,"ARG_OF_PERICENTER":271.93,"MEAN_ANOMALY":88.144,"EPHEMERIS_TYPE":0,"CLASSIFICATION_TYPE":"U","NORAD_CAT_ID":55272,"ELEMENT_SET_NO":999,"REV_AT_EPOCH":17282,"BSTAR":-0.00029012162,"MEAN_MOTION_DOT":-3.554e-5,"MEAN_MOTION_DDOT":0}]
